NORAD_CAT_ID,OBJECT_NAME,OBJECT_TYPE,EPOCH,MEAN_MOTION,ECCENTRICITY,INCLINATION,RA_OF_ASC_NODE,ARG_OF_PERICENTER,MEAN_ANOMALY,BSTAR,MEAN_MOTION_DOT,MEAN_MOTION_DDOT,TLE_LINE0,TLE_LINE1,TLE_LINE2,SEMIMAJOR_AXIS,PERIOD,APOGEE,PERIGEE,DECAYED
52627.0,STARLINK-3992,PAYLOAD,2024-05-22 22:32:00,15.0883964,0.0001287,53.2169,332.8991,119.655,240.457,3.572e-05,2.81e-06,0.0,0 STARLINK-3992,1 52627U 22052AF  24143.93889750  .00000281  00000-0  35720-4 0  9998,2 52627  53.2169 332.8991 0001287 119.6550 240.4570 15.08839640112000,6917.881,95.438,540.637,538.856,0.0
52627.0,STARLINK-3992,PAYLOAD,2024-05-23 19:12:01,15.08842893,0.000137,53.218,329.0311,98.5291,261.5856,0.00012022,1.626e-05,0.0,0 STARLINK-3992,1 52627U 22052AF  24144.80002117  .00001626  00000-0  12022-3 0  9992,2 52627  53.2180 329.0311 0001370  98.5291 261.5856 15.08842893112507,6917.872,95.437,540.684,538.789,0.0
52627.0,STARLINK-3992,PAYLOAD,2024-05-24 12:41:16,15.08833551,0.0001414,53.2166,325.7628,118.4306,241.6829,9.512e-05,1.226e-05,0.0,0 STARLINK-3992,1 52627U 22052AF  24145.52866556  .00001226  00000-0  95120-4 0  9994,2 52627  53.2166 325.7628 0001414 118.4306 241.6829 15.08833551112615,6917.9,95.438,540.743,538.787,0.0
52627.0,STARLINK-3992,PAYLOAD,2024-05-24 19:02:48,15.08855682,0.0001092,53.2166,324.5759,99.0938,261.0178,0.00027252,4.054e-05,0.0,0 STARLINK-3992,1 52627U 22052AF  24145.79361338  .00004054  00000-0  27252-3 0  9993,2 52627  53.2166 324.5759 0001092  99.0938 261.0178 15.08855682112650,6917.832,95.437,540.453,538.942,0.0
52627.0,STARLINK-3992,PAYLOAD,2024-05-25 18:53:36,15.08826795,0.0002011,53.2169,320.1242,132.1411,227.9753,-0.00052353,-8.608e-05,0.0,0 STARLINK-3992,1 52627U 22052AF  24146.78723327 -.00008608  00000-0 -52353-3 0  9994,2 52627  53.2169 320.1242 0002011 132.1411 227.9753 15.08826795112809,6917.921,95.438,541.177,538.395,0.0
52627.0,STARLINK-3992,PAYLOAD,2024-05-26 04:25:55,15.08828724,0.0001498,53.2145,318.2957,35.2393,324.8698,0.00012986,1.779e-05,0.0,0 STARLINK-3992,1 52627U 22052AF  24147.18466707  .00001779  00000-0  12986-3 0  9993,2 52627  53.2145 318.2957 0001498  35.2393 324.8698 15.08828724112869,6917.915,95.438,540.816,538.744,0.0
52627.0,STARLINK-3992,PAYLOAD,2024-05-26 20:19:46,15.08844116,9.5e-05,53.2161,315.3558,102.976,257.1338,0.00030472,4.566e-05,0.0,0 STARLINK-3992,1 52627U 22052AF  24147.84706496  .00004566  00000-0  30472-3 0  9995,2 52627  53.2161 315.3558 0000950 102.9760 257.1338 15.08844116112967,6917.868,95.437,540.39,539.076,0.0
52627.0,STARLINK-3992,PAYLOAD,2024-05-27 04:16:38,15.08881865,0.0006059,53.2156,313.8655,249.0899,110.9445,0.001776,0.00028132,0.0,0 STARLINK-3992,1 52627U 22052AF  24148.17822619  .00028132  00000-0  17760-2 0  9997,2 52627  53.2156 313.8655 0006059 249.0899 110.9445 15.08881865113018,6917.752,95.435,543.809,535.426,0.0
52627.0,STARLINK-3992,PAYLOAD,2024-05-27 14:00:01,15.08883471,0.000109,53.2165,312.0529,88.4465,313.168,-0.0027839,-0.00044373,0.0,0 STARLINK-3992,1 52627U 22052AF  24148.58334491 -.00044373  00000-0 -27839-2 0  9993,2 52627  53.2165 312.0529 0001090  88.4465 313.1680 15.08883471113072,6917.748,95.435,540.367,538.858,0.0
52627.0,STARLINK-3992,PAYLOAD,2024-05-27 16:00:00,15.08891644,0.0001112,53.2163,311.6793,85.3785,49.1423,-0.0051262,-0.00081067,0.0,0 STARLINK-3992,1 52627U 22052AF  24148.66667824 -.00081067  00000-0 -51262-2 0  9999,2 52627  53.2163 311.6793 0001112  85.3785  49.1423 15.08891644  5762,6917.723,95.434,540.357,538.818,0.0
52627.0,STARLINK-3992,PAYLOAD,2024-05-28 16:50:34,15.08847763,0.0001113,53.2179,307.0325,88.9207,271.1913,3.5521e-05,2.78e-06,0.0,0 STARLINK-3992,1 52627U 22052AF  24149.70178492  .00000278  00000-0  35521-4 0  9998,2 52627  53.2179 307.0325 0001113  88.9207 271.1913 15.08847763113245,6917.857,95.437,540.492,538.952,0.0
52627.0,STARLINK-3992,PAYLOAD,2024-05-29 13:30:35,15.08836944,0.0001189,53.2174,303.167,109.7955,250.3166,9.0462e-05,1.152e-05,0.0,0 STARLINK-3992,1 52627U 22052AF  24150.56290752  .00001152  00000-0  90462-4 0  9995,2 52627  53.2174 303.1670 0001189 109.7955 250.3166 15.08836944113007,6917.89,95.438,540.577,538.932,0.0
52627.0,STARLINK-3992,PAYLOAD,2024-05-29 16:41:21,15.08844711,0.0001255,53.2179,302.5729,82.2245,277.8889,-2.1627e-06,-3.22e-06,0.0,0 STARLINK-3992,1 52627U 22052AF  24150.69538592 -.00000322  00000-0 -21627-5 0  9994,2 52627  53.2179 302.5729 0001255  82.2245 277.8889 15.08844711113390,6917.866,95.437,540.599,538.863,0.0
52627.0,STARLINK-3992,PAYLOAD,2024-05-30 14:56:45,15.08841482,0.0001294,53.2183,298.4115,91.3111,268.803,8.1684e-05,1.012e-05,0.0,0 STARLINK-3992,1 52627U 22052AF  24151.62274533  .00001012  00000-0  81684-4 0  9993,2 52627  53.2183 298.4115 0001294  91.3111 268.8030 15.08841482113168,6917.876,95.437,540.636,538.846,0.0
52627.0,STARLINK-3992,PAYLOAD,2024-05-30 18:07:31,15.08844366,0.0001402,53.2189,297.8166,103.0167,257.0982,0.0001011,1.322e-05,0.0,0 STARLINK-3992,1 52627U 22052AF  24151.75522243  .00001322  00000-0  10110-3 0  9990,2 52627  53.2189 297.8166 0001402 103.0167 257.0982 15.08844366113559,6917.867,95.437,540.702,538.762,0.0
52627.0,STARLINK-3992,PAYLOAD,2024-05-31 10:01:22,15.08839102,0.0001534,53.2194,294.8441,110.8505,249.2652,7.3105e-05,8.76e-06,0.0,0 STARLINK-3992,1 52627U 22052AF  24152.41762634  .00000876  00000-0  73105-4 0  9991,2 52627  53.2194 294.8441 0001534 110.8505 249.2652 15.08839102113656,6917.883,95.438,540.809,538.687,0.0
52627.0,STARLINK-3992,PAYLOAD,2024-05-31 14:47:32,15.08842781,0.0001553,53.2195,293.9533,113.1048,247.0108,9.7495e-05,1.264e-05,0.0,0 STARLINK-3992,1 52627U 22052AF  24152.61634349  .00001264  00000-0  97495-4 0  9994,2 52627  53.2195 293.9533 0001553 113.1048 247.0108 15.08842781113310,6917.872,95.437,540.811,538.663,0.0
52627.0,STARLINK-3992,PAYLOAD,2024-05-31 16:22:55,15.08844221,0.0001573,53.2193,293.6556,113.8542,246.2615,0.00011027,1.468e-05,0.0,0 STARLINK-3992,1 52627U 22052AF  24152.68258213  .00001468  00000-0  11027-3 0  9995,2 52627  53.2193 293.6556 0001573 113.8542 246.2615 15.08844221113324,6917.867,95.437,540.821,538.644,0.0
52627.0,STARLINK-3992,PAYLOAD,2024-06-01 13:02:57,15.08826094,0.0001512,53.2192,289.7867,94.9883,265.1281,-9.0707e-05,-1.731e-05,0.0,0 STARLINK-3992,1 52627U 22052AF  24153.54372241 -.00001731  00000-0 -90707-4 0  9997,2 52627  53.2192 289.7867 0001512  94.9883 265.1281 15.08826094113826,6917.923,95.438,540.834,538.742,0.0
52627.0,STARLINK-3992,PAYLOAD,2024-06-01 14:38:20,15.08825647,0.000147,53.2193,289.489,92.8811,267.2349,-9.5394e-05,-1.805e-05,0.0,0 STARLINK-3992,1 52627U 22052AF  24153.60996329 -.00001805  00000-0 -95394-4 0  9992,2 52627  53.2193 289.4890 0001470  92.8811 267.2349 15.08825647113462,6917.924,95.438,540.806,538.772,0.0
52627.0,STARLINK-3992,PAYLOAD,2024-06-02 01:46:02,15.08836767,0.0001479,53.2176,287.407,93.5708,266.5453,-4.0402e-05,-9.31e-06,0.0,0 STARLINK-3992,1 52627U 22052AF  24154.07363632 -.00000931  00000-0 -40402-4 0  9998,2 52627  53.2176 287.4070 0001479  93.5708 266.5453 15.08836767113905,6917.89,95.438,540.778,538.732,0.0
52627.0,STARLINK-3992,PAYLOAD,2024-06-02 09:42:57,15.08847298,0.0001208,53.2183,285.9196,92.3526,267.7604,9.9328e-05,1.294e-05,0.0,0 STARLINK-3992,1 52627U 22052AF  24154.40482738  .00001294  00000-0  99328-4 0  9996,2 52627  53.2183 285.9196 0001208  92.3526 267.7604 15.08847298113957,6917.858,95.437,540.559,538.887,0.0
52627.0,STARLINK-3992,PAYLOAD,2024-06-03 07:58:21,15.08839164,0.0001708,53.2168,281.7572,89.9891,270.1297,0.00026081,3.865e-05,0.0,0 STARLINK-3992,1 52627U 22052AF  24155.33219002  .00003865  00000-0  26081-3 0  9992,2 52627  53.2168 281.7572 0001708  89.9891 270.1297 15.08839164114099,6917.883,95.438,540.93,538.566,0.0
52627.0,STARLINK-3992,PAYLOAD,2024-06-04 01:27:36,15.08834095,0.0001551,53.2163,278.4835,82.5578,277.5591,0.00011232,1.5e-05,0.0,0 STARLINK-3992,1 52627U 22052AF  24156.06083894  .00001500  00000-0  11232-3 0  9997,2 52627  53.2163 278.4835 0001551  82.5578 277.5591 15.08834095114205,6917.898,95.438,540.836,538.69,0.0
52627.0,STARLINK-3992,PAYLOAD,2024-06-04 14:10:41,15.0883864,0.0001765,53.213,276.1047,86.7017,273.4177,-5.8227e-05,-1.215e-05,0.0,0 STARLINK-3992,1 52627U 22052AF  24156.59076002 -.00001215  00000-0 -58227-4 0  9999,2 52627  53.2130 276.1047 0001765  86.7017 273.4177 15.08838640113912,6917.885,95.438,540.971,538.529,0.0
52627.0,STARLINK-3992,PAYLOAD,2024-06-05 12:26:04,15.08851229,0.0001504,53.2149,271.9429,88.3766,271.7398,0.00013953,1.934e-05,0.0,0 STARLINK-3992,1 52627U 22052AF  24157.51810489  .00001934  00000-0  13953-3 0  9999,2 52627  53.2149 271.9429 0001504  88.3766 271.7398 15.08851229114420,6917.846,95.437,540.752,538.671,0.0
52627.0,STARLINK-3992,PAYLOAD,2024-06-05 14:01:27,15.08846691,0.0001264,53.2166,271.6434,95.3631,264.7506,0.0001497,2.096e-05,0.0,0 STARLINK-3992,1 52627U 22052AF  24157.58434783  .00002096  00000-0  14970-3 0  9995,2 52627  53.2166 271.6434 0001264  95.3631 264.7506 15.08846691114064,6917.86,95.437,540.599,538.851,0.0
52627.0,STARLINK-3992,PAYLOAD,2024-06-06 01:09:09,15.08843375,0.0001284,53.2146,269.564,88.686,271.4279,0.00021689,3.166e-05,0.0,0 STARLINK-3992,1 52627U 22052AF  24158.04802599  .00003166  00000-0  21689-3 0  9995,2 52627  53.2146 269.5640 0001284  88.6860 271.4279 15.08843375114505,6917.87,95.437,540.623,538.847,0.0
52627.0,STARLINK-3992,PAYLOAD,2024-06-06 12:16:52,15.08828473,0.0001467,53.2169,267.4791,111.4334,248.6815,0.00021458,3.128e-05,0.0,0 STARLINK-3992,1 52627U 22052AF  24158.51171799  .00003128  00000-0  21458-3 0  9990,2 52627  53.2169 267.4791 0001467 111.4334 248.6815 15.08828473114579,6917.916,95.438,540.795,538.766,0.0
52627.0,STARLINK-3992,PAYLOAD,2024-06-06 13:52:15,15.08835271,0.0001448,53.2148,267.1837,102.5302,257.5852,0.00014598,2.036e-05,0.0,0 STARLINK-3992,1 52627U 22052AF  24158.57795550  .00002036  00000-0  14598-3 0  9997,2 52627  53.2148 267.1837 0001448 102.5302 257.5852 15.08835271114214,6917.895,95.438,540.762,538.758,0.0
